STARS (KUKAI)           
1 33498U 09002G   26137.10936183  .00002389  00000+0  22126-3 0  9995
2 33498  98.1536  83.1590 0006958 273.8665  86.1759 14.95515443933835
KKS-1 (KISEKI)          
1 33499U 09002H   26137.15376885  .00000796  00000+0  10473-3 0  9990
2 33499  98.1195  59.1060 0008824  39.3088 320.8764 14.83035864931596
UK-DMC 2                
1 35683U 09041C   26137.17720591  .00000145  00000+0  28254-4 0  9994
2 35683  97.8786 272.9106 0001647  79.9573 280.1822 14.75973616901997
OCEANSAT-2              
1 35931U 09051A   26137.17463271  .00000187  00000+0  15365-3 0  9994
2 35931  98.2300 127.1243 0014955 329.3161  30.7129 13.99649690874999
SWISSCUBE               
1 35932U 09051B   26137.17488669  .00000612  00000+0  13081-3 0  9999
2 35932  98.4056  44.5216 0005904 319.6984  40.3778 14.62416070884624
BEESAT-1                
1 35933U 09051C   26137.16829418  .00000509  00000+0  11213-3 0  9990
2 35933  98.3985  44.2149 0004735 338.8159  21.2845 14.61664968884651
ITUPSAT1                
1 35935U 09051E   26137.20059391  .00000472  00000+0  10758-3 0  9994
2 35935  98.4070  43.4724 0007145 345.7581  14.3417 14.60389568884212
DMSP 5D-3 F18 (USA 210) 
1 35951U 09057A   26137.16729590  .00000184  00000+0  11862-3 0  9995
2 35951  98.9028 118.0069 0010773 345.6283  14.4582 14.14878254855203
PROBA-2                 
1 36037U 09059B   26137.08501623  .00000092  00000+0  31959-4 0  9997
2 36037  98.2448 320.8698 0013704  22.3625 337.8167 14.54848131877003
YAOGAN-7                
1 36110U 09069A   26137.14971510  .00000292  00000+0  47540-4 0  9998
2 36110  98.0109  23.2030 0025525 136.9155 223.4060 14.77975823885044
XIWANG-1 (HOPE-1)       
1 36122U 09072B   26137.16024402  .00000127  00000+0  44895-3 0  9992
2 36122 100.4007  91.4909 0007030 309.0020  51.0467 13.16438468788925
COSMOS 2463             
1 36519U 10017A   26137.13821801  .00000030  00000+0  16643-4 0  9992
2 36519  82.9591 272.5194 0035433 214.3689 318.9754 13.71663497803679
CARTOSAT-2B             
1 36795U 10035A   26137.14344395  .00000093  00000+0  19924-4 0  9991
2 36795  97.9979 187.8872 0010118 294.8675  65.1483 14.78617806855266
TISAT 1                 
1 36799U 10035E   26136.94238334  .00015910  00000+0  54275-3 0  9998
2 36799  98.0705  80.7555 0003180  45.7057 314.4442 15.30441051862928
YAOGAN-10               
1 36834U 10038A   26137.23270653  .00001147  00000+0  13998-3 0  9998
2 36834  97.8995 160.8832 0001509  94.5260 355.8221 14.85245450852618
SHIJIAN-6 04B (SJ-6 04B)
1 37180U 10051B   26137.18910582 -.00000147  00000+0 -70057-5 0  9996
2 37180  97.8712 142.2850 0012132  52.3610 307.8711 14.99258529851031
FENGYUN 3B              
1 37214U 10059A   26137.19265917  .00000320  00000+0  18876-3 0  9998
2 37214  98.9645 183.0717 0020982 275.0021 172.4240 14.14834974803045
COSMO-SKYMED 4          
1 37216U 10060A   26137.18638589 -.00000129  00000+0 -97106-5 0  9994
2 37216  97.8879 321.2357 0001347  83.6442 276.4925 14.82154437839974
O/OREOS (USA 219)       
1 37224U 10062C   26137.12068831  .00001170  00000+0  11665-3 0  9995
2 37224  71.9681 150.7018 0012836 131.0867 229.1415 14.93602423112002
RESOURCESAT-2           
1 37387U 11015A   26137.19103953  .00000060  00000+0  47555-4 0  9991
2 37387  98.7653 204.8445 0010950 353.0003   7.1019 14.21605023781776
YOUTHSAT                
1 37388U 11015B   26137.19497050  .00000100  00000+0  59344-4 0  9990
2 37388  98.3670 112.6504 0015732  74.2242 296.4287 14.25616111783220
APRIZESAT 6             
1 37793U 11044F   26137.20260242  .00000364  00000+0  58970-4 0  9991
2 37793  98.2382  47.0678 0042968 183.3144 332.5176 14.76869236792577
JUGNU                   
1 37839U 11058B   26136.69746959  .00000373  00000+0  55518-4 0  9998
2 37839  19.9592 139.7344 0018794  88.6786  78.5733 14.13766856754567
SRMSAT                  
1 37841U 11058D   26136.99664625  .00000362  00000+0  52730-4 0  9994
2 37841  19.9717 248.2640 0011605 220.8409 307.3934 14.11568406753407
SUOMI NPP               
1 37849U 11061A   26137.18562633  .00000034  00000+0  37283-4 0  9996
2 37849  98.7944  78.2760 0002783  67.2260 292.9209 14.19510342754040
YAOGAN-12               
1 37875U 11066B   26137.19190723  .00006723  00000+0  26243-3 0  9992
2 37875  97.1166 177.2223 0009068 346.7367  13.3632 15.26179085807316
