OBJECT_NAME,OBJECT_ID,EPOCH,MEAN_MOTION,ECCENTRICITY,INCLINATION,RA_OF_ASC_NODE,ARG_OF_PERICENTER,MEAN_ANOMALY,EPHEMERIS_TYPE,CLASSIFICATION_TYPE,NORAD_CAT_ID,ELEMENT_SET_NO,REV_AT_EPOCH,BSTAR,MEAN_MOTION_DOT,MEAN_MOTION_DDOT
STARS (KUKAI),2009-002G,2026-05-17T02:37:28.862112,14.95515443,.0006958,98.1536,83.1590,273.8665,86.1759,0,U,33498,999,93383,.22126E-3,.2389E-4,0
KKS-1 (KISEKI),2009-002H,2026-05-17T03:41:25.628640,14.83035864,.0008824,98.1195,59.1060,39.3088,320.8764,0,U,33499,999,93159,.10473E-3,.796E-5,0
UK-DMC 2,2009-041C,2026-05-17T04:15:10.590624,14.75973616,.0001647,97.8786,272.9106,79.9573,280.1822,0,U,35683,999,90199,.28254E-4,.145E-5,0
OCEANSAT-2,2009-051A,2026-05-17T04:11:28.266144,13.99649690,.0014955,98.2300,127.1243,329.3161,30.7129,0,U,35931,999,87499,.15365E-3,.187E-5,0
SWISSCUBE,2009-051B,2026-05-17T04:11:50.210016,14.62416070,.0005904,98.4056,44.5216,319.6984,40.3778,0,U,35932,999,88462,.13081E-3,.612E-5,0
BEESAT-1,2009-051C,2026-05-17T04:02:20.617152,14.61664968,.0004735,98.3985,44.2149,338.8159,21.2845,0,U,35933,999,88465,.11213E-3,.509E-5,0
ITUPSAT1,2009-051E,2026-05-17T04:48:51.313824,14.60389568,.0007145,98.4070,43.4724,345.7581,14.3417,0,U,35935,999,88421,.10758E-3,.472E-5,0
DMSP 5D-3 F18 (USA 210),2009-057A,2026-05-17T04:00:54.365760,14.14878254,.0010773,98.9028,118.0069,345.6283,14.4582,0,U,35951,999,85520,.11862E-3,.184E-5,0
PROBA-2,2009-059B,2026-05-17T02:02:25.402272,14.54848131,.0013704,98.2448,320.8698,22.3625,337.8167,0,U,36037,999,87700,.31959E-4,.92E-6,0
YAOGAN-7,2009-069A,2026-05-17T03:35:35.384640,14.77975823,.0025525,98.0109,23.2030,136.9155,223.4060,0,U,36110,999,88504,.4754E-4,.292E-5,0
XIWANG-1 (HOPE-1),2009-072B,2026-05-17T03:50:45.083328,13.16438468,.000703,100.4007,91.4909,309.0020,51.0467,0,U,36122,999,78892,.44895E-3,.127E-5,0
COSMOS 2463,2010-017A,2026-05-17T03:19:02.036064,13.71663497,.0035433,82.9591,272.5194,214.3689,318.9754,0,U,36519,999,80367,.16643E-4,.3E-6,0
CARTOSAT-2B,2010-035A,2026-05-17T03:26:33.557280,14.78617806,.0010118,97.9979,187.8872,294.8675,65.1483,0,U,36795,999,85526,.19924E-4,.93E-6,0
TISAT 1,2010-035E,2026-05-16T22:37:01.920576,15.30441051,.000318,98.0705,80.7555,45.7057,314.4442,0,U,36799,999,86292,.54275E-3,.1591E-3,0
YAOGAN-10,2010-038A,2026-05-17T05:35:05.844192,14.85245450,.0001509,97.8995,160.8832,94.5260,355.8221,0,U,36834,999,85261,.13998E-3,.1147E-4,0
SHIJIAN-6 04B (SJ-6 04B),2010-051B,2026-05-17T04:32:18.742848,14.99258529,.0012132,97.8712,142.2850,52.3610,307.8711,0,U,37180,999,85103,-.70057E-5,-.147E-5,0
FENGYUN 3B,2010-059A,2026-05-17T04:37:25.752288,14.14834974,.0020982,98.9645,183.0717,275.0021,172.4240,0,U,37214,999,80304,.18876E-3,.32E-5,0
COSMO-SKYMED 4,2010-060A,2026-05-17T04:28:23.740896,14.82154437,.0001347,97.8879,321.2357,83.6442,276.4925,0,U,37216,999,83997,-.97106E-5,-.129E-5,0
O/OREOS (USA 219),2010-062C,2026-05-17T02:53:47.469984,14.93602423,.0012836,71.9681,150.7018,131.0867,229.1415,0,U,37224,999,11200,.11665E-3,.117E-4,0
RESOURCESAT-2,2011-015A,2026-05-17T04:35:05.815392,14.21605023,.001095,98.7653,204.8445,353.0003,7.1019,0,U,37387,999,78177,.47555E-4,.6E-6,0
YOUTHSAT,2011-015B,2026-05-17T04:40:45.451200,14.25616111,.0015732,98.3670,112.6504,74.2242,296.4287,0,U,37388,999,78322,.59344E-4,.1E-5,0
APRIZESAT 6,2011-044F,2026-05-17T04:51:44.849088,14.76869236,.0042968,98.2382,47.0678,183.3144,332.5176,0,U,37793,999,79257,.5897E-4,.364E-5,0
JUGNU,2011-058B,2026-05-16T16:44:21.372576,14.13766856,.00187943,19.9592,139.7344,88.6786,78.5733,0,U,37839,999,75456,.55517836E-4,.373E-5,0
SRMSAT,2011-058D,2026-05-16T23:55:10.236000,14.11568406,.0011605,19.9717,248.2640,220.8409,307.3934,0,U,37841,999,75340,.5273E-4,.362E-5,0
SUOMI NPP,2011-061A,2026-05-17T04:27:18.114912,14.19510342,.0002783,98.7944,78.2760,67.2260,292.9209,0,U,37849,999,75404,.37283E-4,.34E-6,0
YAOGAN-12,2011-066B,2026-05-17T04:36:20.784672,15.26179085,.0009068,97.1166,177.2223,346.7367,13.3632,0,U,37875,999,80731,.26243E-3,.6723E-4,0
